RCM-2                   
1 44324U 19033C   21251.49759518 -.00000305  00000-0 -24257-4 0  9996
2 44324  97.7602 257.9061 0001494  83.7215 276.4183 14.92585128122139
